{
  "type": "FeatureCollection",
  "features": [
    {
      "type": "Feature",
      "properties": {
        "norad_id": 30571,
        "name": "FENGYUN 1C DEB",
        "group": "fengyun-1c-debris",
        "lat": -44.111054410771224,
        "lon": -174.5258156137943,
        "alt_km": 848.650159676874,
        "timestamp": "2025-12-13T20:38:51.282540+00:00",
        "meta_object_name": "FENGYUN 1C DEB",
        "meta_object_id": "1999-025ALM",
        "meta_epoch": "2025-12-13T01:07:06.583008",
        "meta_mean_motion": 14.10695813,
        "meta_eccentricity": 0.00208118,
        "meta_inclination": 98.7313,
        "meta_ra_of_asc_node": 13.2516,
        "meta_arg_of_pericenter": 233.0481,
        "meta_mean_anomaly": 181.5205,
        "meta_ephemeris_type": 0,
        "meta_classification_type": "U",
        "meta_norad_cat_id": 30571,
        "meta_element_set_no": 999,
        "meta_rev_at_epoch": 96891,
        "meta_bstar": 0.00034704194,
        "meta_mean_motion_dot": 5.78e-06,
        "meta_mean_motion_ddot": 0,
        "tle_line1": "1 30571U 99025ALM 25347.04660397  .00000578  00000+0  34704-3 0  9997",
        "tle_line2": "2 30571  98.7313  13.2516 0020811 233.0481 181.5205 14.10695813968913"
      },
      "geometry": {
        "type": "Point",
        "coordinates": [
          -174.5258156137943,
          -44.111054410771224
        ]
      }
    },
    {
      "type": "Feature",
      "properties": {
        "norad_id": 30572,
        "name": "FENGYUN 1C DEB",
        "group": "fengyun-1c-debris",
        "lat": 55.113280783215416,
        "lon": -149.75251082284382,
        "alt_km": 872.6592638918546,
        "timestamp": "2025-12-13T20:38:51.282565+00:00",
        "meta_object_name": "FENGYUN 1C DEB",
        "meta_object_id": "1999-025ALN",
        "meta_epoch": "2025-12-13T08:14:01.807008",
        "meta_mean_motion": 14.08922304,
        "meta_eccentricity": 0.00211305,
        "meta_inclination": 98.7722,
        "meta_ra_of_asc_node": 16.95,
        "meta_arg_of_pericenter": 291.8434,
        "meta_mean_anomaly": 90.0137,
        "meta_ephemeris_type": 0,
        "meta_classification_type": "U",
        "meta_norad_cat_id": 30572,
        "meta_element_set_no": 999,
        "meta_rev_at_epoch": 96770,
        "meta_bstar": 0.00035142253,
        "meta_mean_motion_dot": 5.66e-06,
        "meta_mean_motion_ddot": 0,
        "tle_line1": "1 30572U 99025ALN 25347.34307647  .00000566  00000+0  35142-3 0  9991",
        "tle_line2": "2 30572  98.7722  16.9500 0021130 291.8434  90.0137 14.08922304967705"
      },
      "geometry": {
        "type": "Point",
        "coordinates": [
          -149.75251082284382,
          55.113280783215416
        ]
      }
    },
    {
      "type": "Feature",
      "properties": {
        "norad_id": 30573,
        "name": "FENGYUN 1C DEB",
        "group": "fengyun-1c-debris",
        "lat": 70.98980464323623,
        "lon": -2.5202792191125556,
        "alt_km": 900.2212040656605,
        "timestamp": "2025-12-13T20:38:51.282585+00:00",
        "meta_object_name": "FENGYUN 1C DEB",
        "meta_object_id": "1999-025ALP",
        "meta_epoch": "2025-12-13T01:45:09.576864",
        "meta_mean_motion": 14.13841276,
        "meta_eccentricity": 0.00883445,
        "meta_inclination": 99.2271,
        "meta_ra_of_asc_node": 24.8197,
        "meta_arg_of_pericenter": 272.8422,
        "meta_mean_anomaly": 115.2316,
        "meta_ephemeris_type": 0,
        "meta_classification_type": "U",
        "meta_norad_cat_id": 30573,
        "meta_element_set_no": 999,
        "meta_rev_at_epoch": 96202,
        "meta_bstar": 0.0024882862,
        "meta_mean_motion_dot": 4.847e-05,
        "meta_mean_motion_ddot": 0,
        "tle_line1": "1 30573U 99025ALP 25347.07302751  .00004847  00000+0  24883-2 0  9998",
        "tle_line2": "2 30573  99.2271  24.8197 0088344 272.8422 115.2316 14.13841276962020"
      },
      "geometry": {
        "type": "Point",
        "coordinates": [
          -2.5202792191125556,
          70.98980464323623
        ]
      }
    },
    {
      "type": "Feature",
      "properties": {
        "norad_id": 30574,
        "name": "FENGYUN 1C DEB",
        "group": "fengyun-1c-debris",
        "lat": -37.178216099731856,
        "lon": -35.71249642962471,
        "alt_km": 1073.3900935895263,
        "timestamp": "2025-12-13T20:38:51.282601+00:00",
        "meta_object_name": "FENGYUN 1C DEB",
        "meta_object_id": "1999-025ALQ",
        "meta_epoch": "2025-12-11T10:03:26.289792",
        "meta_mean_motion": 13.77512791,
        "meta_eccentricity": 0.0219325,
        "meta_inclination": 99.302,
        "meta_ra_of_asc_node": 149.0367,
        "meta_arg_of_pericenter": 350.9796,
        "meta_mean_anomaly": 8.7444,
        "meta_ephemeris_type": 0,
        "meta_classification_type": "U",
        "meta_norad_cat_id": 30574,
        "meta_element_set_no": 999,
        "meta_rev_at_epoch": 93750,
        "meta_bstar": 0.0031904769,
        "meta_mean_motion_dot": 3.752e-05,
        "meta_mean_motion_ddot": 0,
        "tle_line1": "1 30574U 99025ALQ 25345.41905428  .00003752  00000+0  31905-2 0  9992",
        "tle_line2": "2 30574  99.3020 149.0367 0219325 350.9796   8.7444 13.77512791937509"
      },
      "geometry": {
        "type": "Point",
        "coordinates": [
          -35.71249642962471,
          -37.178216099731856
        ]
      }
    },
    {
      "type": "Feature",
      "properties": {
        "norad_id": 30575,
        "name": "FENGYUN 1C DEB",
        "group": "fengyun-1c-debris",
        "lat": -66.88765094014043,
        "lon": -123.38093829031412,
        "alt_km": 728.16858675001,
        "timestamp": "2025-12-13T20:38:51.282613+00:00",
        "meta_object_name": "FENGYUN 1C DEB",
        "meta_object_id": "1999-025ALR",
        "meta_epoch": "2025-12-13T04:45:31.810176",
        "meta_mean_motion": 14.40068331,
        "meta_eccentricity": 0.00541621,
        "meta_inclination": 99.1694,
        "meta_ra_of_asc_node": 78.1487,
        "meta_arg_of_pericenter": 235.1999,
        "meta_mean_anomaly": 183.0873,
        "meta_ephemeris_type": 0,
        "meta_classification_type": "U",
        "meta_norad_cat_id": 30575,
        "meta_element_set_no": 999,
        "meta_rev_at_epoch": 98224,
        "meta_bstar": 0.0015867606,
        "meta_mean_motion_dot": 5.045e-05,
        "meta_mean_motion_ddot": 0,
        "tle_line1": "1 30575U 99025ALR 25347.19828484  .00005045  00000+0  15868-2 0  9993",
        "tle_line2": "2 30575  99.1694  78.1487 0054162 235.1999 183.0873 14.40068331982246"
      },
      "geometry": {
        "type": "Point",
        "coordinates": [
          -123.38093829031412,
          -66.88765094014043
        ]
      }
    },
    {
      "type": "Feature",
      "properties": {
        "norad_id": 30577,
        "name": "FENGYUN 1C DEB",
        "group": "fengyun-1c-debris",
        "lat": -3.381453340354857,
        "lon": -158.75804767127272,
        "alt_km": 860.777697795008,
        "timestamp": "2025-12-13T20:38:51.282624+00:00",
        "meta_object_name": "FENGYUN 1C DEB",
        "meta_object_id": "1999-025ALT",
        "meta_epoch": "2025-12-12T20:48:47.342304",
        "meta_mean_motion": 14.11144371,
        "meta_eccentricity": 0.00286134,
        "meta_inclination": 98.7706,
        "meta_ra_of_asc_node": 20.7948,
        "meta_arg_of_pericenter": 281.8155,
        "meta_mean_anomaly": 259.5515,
        "meta_ephemeris_type": 0,
        "meta_classification_type": "U",
        "meta_norad_cat_id": 30577,
        "meta_element_set_no": 999,
        "meta_rev_at_epoch": 96786,
        "meta_bstar": 0.00071157992,
        "meta_mean_motion_dot": 1.243e-05,
        "meta_mean_motion_ddot": 0,
        "tle_line1": "1 30577U 99025ALT 25346.86721461  .00001243  00000+0  71158-3 0  9996",
        "tle_line2": "2 30577  98.7706  20.7948 0028613 281.8155 259.5515 14.11144371967866"
      },
      "geometry": {
        "type": "Point",
        "coordinates": [
          -158.75804767127272,
          -3.381453340354857
        ]
      }
    },
    {
      "type": "Feature",
      "properties": {
        "norad_id": 30579,
        "name": "FENGYUN 1C DEB",
        "group": "fengyun-1c-debris",
        "lat": 4.725880583350244,
        "lon": 11.768445108397248,
        "alt_km": 881.4900491451253,
        "timestamp": "2025-12-13T20:38:51.282634+00:00",
        "meta_object_name": "FENGYUN 1C DEB",
        "meta_object_id": "1999-025ALV",
        "meta_epoch": "2025-12-12T19:48:51.566976",
        "meta_mean_motion": 14.05250205,
        "meta_eccentricity": 0.00536954,
        "meta_inclination": 98.807,
        "meta_ra_of_asc_node": 11.498,
        "meta_arg_of_pericenter": 103.3635,
        "meta_mean_anomaly": 70.5032,
        "meta_ephemeris_type": 0,
        "meta_classification_type": "U",
        "meta_norad_cat_id": 30579,
        "meta_element_set_no": 999,
        "meta_rev_at_epoch": 96458,
        "meta_bstar": 0.00062123576,
        "meta_mean_motion_dot": 9.75e-06,
        "meta_mean_motion_ddot": 0,
        "tle_line1": "1 30579U 99025ALV 25346.82559684  .00000975  00000+0  62124-3 0  9994",
        "tle_line2": "2 30579  98.8070  11.4980 0053695 103.3635  70.5032 14.05250205964583"
      },
      "geometry": {
        "type": "Point",
        "coordinates": [
          11.768445108397248,
          4.725880583350244
        ]
      }
    }
  ]
}